ONEWEB-0063             
1 45448U 20020AA  26187.55333552 -.00000542  00000+0 -15641-2 0  9995
2 45448  87.8890  17.2137 0002033  81.8326 278.3033 13.11416024305236
ONEWEB-0019             
1 45449U 20020AB  26187.59204779 -.00000267  00000+0 -78899-3 0  9997
2 45449  87.8887  17.1902 0001649  87.1286 273.0031 13.11416470305086
ONEWEB-0094             
1 45450U 20020AC  26187.87041753  .00000036  00000+0  60157-4 0  9992
2 45450  87.9148   1.9345 0001720  96.7105 263.4223 13.17648466308905
ONEWEB-0087             
1 45451U 20020AD  26187.56323236 -.00000397  00000+0 -11557-2 0  9998
2 45451  87.8899  17.1875 0001527  88.4129 271.7174 13.11417487305123
ONEWEB-0082             
1 45452U 20020AE  26187.55984297 -.00000488  00000+0 -14117-2 0  9994
2 45452  87.8890  17.2030 0001450  78.7433 281.3858 13.11416975305211
ONEWEB-0050             
1 45453U 20020AF  26187.61331714  .00001751  00000+0  17751-3 0  9992
2 45453  88.9281 230.5725 0000669 221.0981 139.0198 14.90455053343273
ONEWEB-0034             
1 45454U 20020AG  26187.59743926  .00000528  00000+0  14538-2 0  9992
2 45454  87.8888  17.2050 0001844  88.2053 271.9286 13.11415539305139
ONEWEB-0060             
1 45455U 20020AH  26187.55235168 -.00000520  00000+0 -15021-2 0  9995
2 45455  87.8881  17.2103 0000871 104.2605 255.8620 13.11415871305089
ONEWEB-0086             
1 45456U 20020AJ  26187.75992244  .00000312  00000+0  84396-3 0  9992
2 45456  87.8888  17.1658 0001528 114.0901 246.0387 13.11414880305170
ONEWEB-0088             
1 45457U 20020AK  26187.58541910  .00000441  00000+0  12080-2 0  9997
2 45457  87.8896  17.1748 0001905  75.3601 284.7738 13.11417743305085
ONEWEB-0102             
1 47258U 20100A   26187.72692104  .00000268  00000+0  70992-3 0  9999
2 47258  87.8953 346.7884 0001888 103.3814 256.7525 13.12444236267291
ONEWEB-0109             
1 47259U 20100B   26187.73539448  .00000443  00000+0  11968-2 0  9994
2 47259  87.8964 346.7718 0001970  96.9872 263.1480 13.12443258267120
ONEWEB-0110             
1 47260U 20100C   26187.83873963 -.00000055  00000+0 -18961-3 0  9992
2 47260  87.8962 346.7354 0001668 102.6456 257.4859 13.12441454267305
ONEWEB-0111             
1 47261U 20100D   26187.86922723 -.00000099  00000+0 -31108-3 0  9991
2 47261  87.8962 346.7480 0001739  93.9186 266.2142 13.12443920267142
ONEWEB-0114             
1 47262U 20100E   26187.44229876  .00000257  00000+0  67912-3 0  9991
2 47262  87.8965 346.8309 0002026  96.3053 263.8306 13.12440957267048
ONEWEB-0117             
1 47263U 20100F   26187.73877743  .00000471  00000+0  12727-2 0  9997
2 47263  87.8961 346.7621 0001831  95.6806 264.4531 13.12442513267094
ONEWEB-0118             
1 47264U 20100G   26187.84888865 -.00000346  00000+0 -99844-3 0  9996
2 47264  87.8962 346.7430 0002072  87.3192 272.8174 13.12441346267301
ONEWEB-0119             
1 47265U 20100H   26187.72183472  .00000201  00000+0  52465-3 0  9992
2 47265  87.8950 346.7832 0001870  94.4442 265.6901 13.12443864267267
ONEWEB-0120             
1 47266U 20100J   26187.51697865  .00000390  00000+0  10483-2 0  9998
2 47266  87.8952 346.8253 0002024  96.6416 263.4943 13.12441002267269
ONEWEB-0121             
1 47267U 20100K   26187.73369316  .00000409  00000+0  11016-2 0  9994
2 47267  87.8962 346.7699 0001531  92.4008 267.7296 13.12442247267201
ONEWEB-0122             
1 47268U 20100L   26187.72776023  .00000348  00000+0  93254-3 0  9998
2 47268  87.8964 346.7762 0001907  99.4628 260.6716 13.12445632267117
ONEWEB-0123             
1 47269U 20100M   26187.72352561  .00000198  00000+0  51533-3 0  9993
2 47269  87.8950 346.7820 0001910  91.7668 268.3679 13.12443782267253
ONEWEB-0124             
1 47270U 20100N   26187.86583244 -.00000213  00000+0 -62790-3 0  9991
2 47270  87.8951 346.7562 0001746  92.4147 267.7182 13.12442988267154
ONEWEB-0125             
1 47271U 20100P   26187.46262090 -.00000284  00000+0 -82578-3 0  9995
2 47271  87.8962 346.8221 0001702  85.0063 275.1260 13.12442180267162
ONEWEB-0126             
1 47272U 20100Q   26187.86428590 -.00000289  00000+0 -83752-3 0  9999
2 47272  87.8956 346.7567 0001965  94.7633 265.3720 13.12442951267280
ONEWEB-0127             
1 47273U 20100R   26187.44907553  .00000182  00000+0  47133-3 0  9998
2 47273  87.8950 346.8371 0001958  96.1888 263.9464 13.12441847267258
ONEWEB-0128             
1 47274U 20100S   26187.85227860 -.00000393  00000+0 -11280-2 0  9999
2 47274  87.8949 346.7706 0001629 102.5021 257.6289 13.12442426267321
ONEWEB-0129             
1 47275U 20100T   26187.45076519  .00000058  00000+0  12722-3 0  9998
2 47275  87.8961 346.8262 0002919 100.8640 259.2817 13.12440892267202
ONEWEB-0130             
1 47276U 20100U   26187.85905786 -.00000355  00000+0 -10213-2 0  9994
2 47276  87.8959 346.7412 0001874  98.0354 262.0987 13.12442873267228
ONEWEB-0131             
1 47277U 20100V   26187.85566909 -.00000398  00000+0 -11421-2 0  9994
2 47277  87.8952 346.7577 0001753  99.5029 260.6298 13.12442412267267
