OBJECT_NAME,OBJECT_ID,EPOCH,MEAN_MOTION,ECCENTRICITY,INCLINATION,RA_OF_ASC_NODE,ARG_OF_PERICENTER,MEAN_ANOMALY,EPHEMERIS_TYPE,CLASSIFICATION_TYPE,NORAD_CAT_ID,ELEMENT_SET_NO,REV_AT_EPOCH,BSTAR,MEAN_MOTION_DOT,MEAN_MOTION_DDOT
ONEWEB-0063,2020-020AA,2026-07-06T13:16:48.188928,13.11416024,.0002033,87.8890,17.2137,81.8326,278.3033,0,U,45448,999,30523,-.15641E-2,-.542E-5,0
ONEWEB-0019,2020-020AB,2026-07-06T14:12:32.929056,13.11416470,.0001649,87.8887,17.1902,87.1286,273.0031,0,U,45449,999,30508,-.78899E-3,-.267E-5,0
ONEWEB-0094,2020-020AC,2026-07-06T20:53:24.074592,13.17648466,.000172,87.9148,1.9345,96.7105,263.4223,0,U,45450,999,30890,.60157E-4,.36E-6,0
ONEWEB-0087,2020-020AD,2026-07-06T13:31:03.275904,13.11417487,.0001527,87.8899,17.1875,88.4129,271.7174,0,U,45451,999,30512,-.11557E-2,-.397E-5,0
ONEWEB-0082,2020-020AE,2026-07-06T13:26:10.432608,13.11416975,.000145,87.8890,17.2030,78.7433,281.3858,0,U,45452,999,30521,-.14117E-2,-.488E-5,0
ONEWEB-0050,2020-020AF,2026-07-06T14:43:10.600896,14.90455053,.0000669,88.9281,230.5725,221.0981,139.0198,0,U,45453,999,34327,.17751E-3,.1751E-4,0
ONEWEB-0034,2020-020AG,2026-07-06T14:20:18.752064,13.11415539,.0001844,87.8888,17.2050,88.2053,271.9286,0,U,45454,999,30513,.14538E-2,.528E-5,0
ONEWEB-0060,2020-020AH,2026-07-06T13:15:23.185152,13.11415871,.0000871,87.8881,17.2103,104.2605,255.8620,0,U,45455,999,30508,-.15021E-2,-.52E-5,0
ONEWEB-0086,2020-020AJ,2026-07-06T18:14:17.298816,13.11414880,.0001528,87.8888,17.1658,114.0901,246.0387,0,U,45456,999,30517,.84396E-3,.312E-5,0
ONEWEB-0088,2020-020AK,2026-07-06T14:03:00.210240,13.11417743,.0001905,87.8896,17.1748,75.3601,284.7738,0,U,45457,999,30508,.1208E-2,.441E-5,0
ONEWEB-0102,2020-100A,2026-07-06T17:26:45.977856,13.12444236,.0001888,87.8953,346.7884,103.3814,256.7525,0,U,47258,999,26729,.70992E-3,.268E-5,0
ONEWEB-0109,2020-100B,2026-07-06T17:38:58.083072,13.12443258,.000197,87.8964,346.7718,96.9872,263.1480,0,U,47259,999,26712,.11968E-2,.443E-5,0
ONEWEB-0110,2020-100C,2026-07-06T20:07:47.104032,13.12441454,.0001668,87.8962,346.7354,102.6456,257.4859,0,U,47260,999,26730,-.18961E-3,-.55E-6,0
ONEWEB-0111,2020-100D,2026-07-06T20:51:41.232672,13.12443920,.0001739,87.8962,346.7480,93.9186,266.2142,0,U,47261,999,26714,-.31108E-3,-.99E-6,0
ONEWEB-0114,2020-100E,2026-07-06T10:36:54.612864,13.12440957,.00020263,87.8965,346.8309,96.3053,263.8306,0,U,47262,999,26704,.67911867E-3,.257E-5,0
ONEWEB-0117,2020-100F,2026-07-06T17:43:50.369952,13.12442513,.0001831,87.8961,346.7621,95.6806,264.4531,0,U,47263,999,26709,.12727E-2,.471E-5,0
ONEWEB-0118,2020-100G,2026-07-06T20:22:23.979360,13.12441346,.0002072,87.8962,346.7430,87.3192,272.8174,0,U,47264,999,26730,-.99844E-3,-.346E-5,0
ONEWEB-0119,2020-100H,2026-07-06T17:19:26.519808,13.12443864,.000187,87.8950,346.7832,94.4442,265.6901,0,U,47265,999,26726,.52465E-3,.201E-5,0
ONEWEB-0120,2020-100J,2026-07-06T12:24:26.955360,13.12441002,.0002024,87.8952,346.8253,96.6416,263.4943,0,U,47266,999,26726,.10483E-2,.39E-5,0
ONEWEB-0121,2020-100K,2026-07-06T17:36:31.089024,13.12442247,.0001531,87.8962,346.7699,92.4008,267.7296,0,U,47267,999,26720,.11016E-2,.409E-5,0
ONEWEB-0122,2020-100L,2026-07-06T17:27:58.483872,13.12445632,.0001907,87.8964,346.7762,99.4628,260.6716,0,U,47268,999,26711,.93254E-3,.348E-5,0
ONEWEB-0123,2020-100M,2026-07-06T17:21:52.612704,13.12443782,.000191,87.8950,346.7820,91.7668,268.3679,0,U,47269,999,26725,.51533E-3,.198E-5,0
ONEWEB-0124,2020-100N,2026-07-06T20:46:47.922816,13.12442988,.0001746,87.8951,346.7562,92.4147,267.7182,0,U,47270,999,26715,-.6279E-3,-.213E-5,0
ONEWEB-0125,2020-100P,2026-07-06T11:06:10.445760,13.12442180,.0001702,87.8962,346.8221,85.0063,275.1260,0,U,47271,999,26716,-.82578E-3,-.284E-5,0
ONEWEB-0126,2020-100Q,2026-07-06T20:44:34.301760,13.12442951,.0001965,87.8956,346.7567,94.7633,265.3720,0,U,47272,999,26728,-.83752E-3,-.289E-5,0
ONEWEB-0127,2020-100R,2026-07-06T10:46:40.125792,13.12441847,.00019587,87.8950,346.8371,96.1888,263.9464,0,U,47273,999,26725,.47132918E-3,.182E-5,0
ONEWEB-0128,2020-100S,2026-07-06T20:27:16.871040,13.12442426,.0001629,87.8949,346.7706,102.5021,257.6289,0,U,47274,999,26732,-.1128E-2,-.393E-5,0
ONEWEB-0129,2020-100T,2026-07-06T10:49:06.112416,13.12440892,.0002919,87.8961,346.8262,100.8640,259.2817,0,U,47275,999,26720,.12722E-3,.58E-6,0
ONEWEB-0130,2020-100U,2026-07-06T20:37:02.599104,13.12442873,.0001874,87.8959,346.7412,98.0354,262.0987,0,U,47276,999,26722,-.10213E-2,-.355E-5,0
ONEWEB-0131,2020-100V,2026-07-06T20:32:09.809376,13.12442412,.0001753,87.8952,346.7577,99.5029,260.6298,0,U,47277,999,26726,-.11421E-2,-.398E-5,0
